{
    "links": {
        "self": "http://www.neowsapp.com/rest/v1/neo/3656412?api_key=iIulBulltgU6a56xZRHN4H3l9WmuAYTsLGpBGhQ2"
    },
    "id": "3656412",
    "neo_reference_id": "3656412",
    "name": "(2014 BT)",
    "designation": "2014 BT",
    "nasa_jpl_url": "http://ssd.jpl.nasa.gov/sbdb.cgi?sstr=3656412",
    "absolute_magnitude_h": 24.2,
    "estimated_diameter": {
        "kilometers": {
            "estimated_diameter_min": 0.0384197891,
            "estimated_diameter_max": 0.0859092601
        },
        "meters": {
            "estimated_diameter_min": 38.4197891064,
            "estimated_diameter_max": 85.9092601232
        },
        "miles": {
            "estimated_diameter_min": 0.0238729428,
            "estimated_diameter_max": 0.0533815229
        },
        "feet": {
            "estimated_diameter_min": 126.0491808919,
            "estimated_diameter_max": 281.8545369825
        }
    },
    "is_potentially_hazardous_asteroid": false,
    "close_approach_data": [
        {
            "close_approach_date": "2014-01-13",
            "close_approach_date_full": "2014-Jan-13 13:34",
            "epoch_date_close_approach": 1389620040000,
            "relative_velocity": {
                "kilometers_per_second": "8.178910634",
                "kilometers_per_hour": "29444.0782822263",
                "miles_per_hour": "18295.4051970867"
            },
            "miss_distance": {
                "astronomical": "0.1185807682",
                "lunar": "46.1279188298",
                "kilometers": "17739430.345683734",
                "miles": "11022770.8841301692"
            },
            "orbiting_body": "Earth"
        }
    ],
    "orbital_data": {
        "orbit_id": "6",
        "orbit_determination_date": "2017-04-06 08:42:50",
        "first_observation_date": "2014-01-20",
        "last_observation_date": "2014-02-01",
        "data_arc_in_days": 12,
        "observations_used": 24,
        "orbit_uncertainty": "8",
        "minimum_orbit_intersection": ".117552",
        "jupiter_tisserand_invariant": "3.909",
        "epoch_osculation": "2456680.5",
        "eccentricity": ".4029579097988282",
        "semi_major_axis": "1.822724508673387",
        "inclination": "13.28204068988815",
        "ascending_node_longitude": "121.4041457644351",
        "orbital_period": "898.8350031004712",
        "perihelion_distance": "1.088243250519263",
        "perihelion_argument": "339.0133333461935",
        "aphelion_distance": "2.557205766827511",
        "perihelion_time": "2456658.038905056746",
        "mean_anomaly": "8.996082875810737",
        "mean_motion": ".40051844749949",
        "equinox": "J2000",
        "orbit_class": {
            "orbit_class_type": "AMO",
            "orbit_class_description": "Near-Earth asteroid orbits similar to that of 1221 Amor",
            "orbit_class_range": "1.017 AU < q (perihelion) < 1.3 AU"
        }
    },
    "is_sentry_object": false
}